FLOCK 2K-41             
1 42875U 17042BC  19080.15758235  .00002640  00000-0  71333-4 0  9997
2 42875  96.9529 327.6505 0011578 167.8722 192.2805 15.38515108 94200
FLOCK 2K-36             
1 42876U 17042BD  19080.15275269  .00005336  00000-0  13990-3 0  9998
2 42876  96.9525 327.5297 0011516 168.7338 191.4169 15.38999412 94195
FLOCK 2K-35             
1 42877U 17042BE  19079.91218241  .00002461  00000-0  66603-4 0  9994
2 42877  96.9530 327.3932 0011434 168.2068 191.9448 15.38523996 94162
FLOCK 2K-34             
1 42878U 17042BF  19080.62567354  .00001969  00000-0  53721-4 0  9996
2 42878  96.9524 328.0572 0011574 167.1636 192.9907 15.38501139 94276
FLOCK 2K-33             
1 42879U 17042BG  19079.90634058  .00006053  00000-0  15142-3 0  9995
2 42879  96.9526 327.8193 0011106 166.6913 193.4629 15.40393209 94196
FLOCK 2K-28             
1 42880U 17042BH  19079.92443536  .00001641  00000-0  49597-4 0  9998
2 42880  96.9525 325.8199 0012174 175.9797 184.1547 15.35489241 94057
LEMUR-2-ARTFISCHER      
1 42881U 17042BJ  19080.66425397  .00003100  00000-0  84683-4 0  9994
2 42881  96.9527 327.7424 0012136 171.4484 188.6971 15.38040218 94234
FLOCK 2K-27             
1 42882U 17042BK  19080.13897131  .00005012  00000-0  13149-3 0  9998
2 42882  96.9529 327.5501 0011581 169.3904 190.7590 15.39010855 94198
FLOCK 2K-26             
1 42883U 17042BL  19080.63617252  .00002254  00000-0  60476-4 0  9999
2 42883  96.9521 328.1813 0011857 165.7243 194.4341 15.38868893 94283
FLOCK 2K-25             
1 42884U 17042BM  19079.90785764  .00002391  00000-0  64791-4 0  9998
2 42884  96.9527 327.3779 0011496 168.8719 191.2783 15.38519928 94167
FLOCK 2K-20             
1 42885U 17042BN  19080.16023647  .00004050  00000-0  10798-3 0  9995
2 42885  96.9527 327.6560 0011906 167.3277 192.8271 15.38620152 94204
FLOCK 2K-19             
1 42886U 17042BP  19080.16608689  .00002839  00000-0  76528-4 0  9998
2 42886  96.9529 327.6562 0011951 168.1656 191.9874 15.38522368 94208
FLOCK 2K-18             
1 42887U 17042BQ  19080.15571126  .00004464  00000-0  11931-3 0  9995
2 42887  96.9530 327.6585 0012137 167.5195 192.6354 15.38484102 94208
FLOCK 2K-17             
1 42888U 17042BR  19080.14070692  .00005256  00000-0  13798-3 0  9990
2 42888  96.9518 327.6242 0011780 165.5680 194.5905 15.38965359 94206
FLOCK 2K-16             
1 42889U 17042BS  19080.68420587  .00003593  00000-0  96484-4 0  9998
2 42889  96.9529 328.1467 0011767 164.1013 196.0605 15.38473818 94280
FLOCK 2K-15             
1 42890U 17042BT  19079.89369939  .00004241  00000-0  11349-3 0  9991
2 42890  96.9539 327.4674 0011978 167.6039 192.5504 15.38476096 94162
FLOCK 2K-13             
1 42891U 17042BU  19079.92259353  .00005522  00000-0  14335-3 0  9995
2 42891  96.9542 327.4135 0011885 163.3406 196.8233 15.39288241 94167
FLOCK 2K-14             
1 42892U 17042BV  19080.67038550  .00004255  00000-0  11283-3 0  9995
2 42892  96.9521 328.1230 0012016 163.5038 196.6602 15.38757848 94283
FLOCK 2K-12             
1 42893U 17042BW  19080.66992312  .00003581  00000-0  96107-4 0  9990
2 42893  96.9530 328.1854 0012107 165.2669 194.8933 15.38486382 94285
FLOCK 2K-11             
1 42894U 17042BX  19079.96485092  .00002432  00000-0  65883-4 0  9995
2 42894  96.9529 327.4733 0011989 163.9425 196.2204 15.38495502 94173
FLOCK 2K-10             
1 42895U 17042BY  19080.47646958  .00003668  00000-0  98401-4 0  9998
2 42895  96.9524 327.9480 0012195 164.1311 196.0320 15.38485123 94254
FLOCK 2K-09             
1 42896U 17042BZ  19080.65915339  .00003085  00000-0  80488-4 0  9990
2 42896  96.9513 328.4504 0011676 162.0584 198.1077 15.39469147 94473
FLOCK 2K-06             
1 42897U 17042CA  19080.64234252  .00003494  00000-0  93786-4 0  9997
2 42897  96.9524 328.0428 0010115 175.0373 185.0975 15.38524105 94279
VENUS                   
1 42901U 17044B   19080.77712442 -.00001709  00000-0 -42267-3 0  9997
2 42901  98.2867 158.3400 0003913 144.1798 215.9605 14.50843686 86512
SILU-1 (SILKROAD 1)     
1 42903U 17021F   19080.42654520  .00244924  34272-4  36792-3 0  9992
2 42903  42.7664  63.4972 0014301 144.0521 354.6200 16.03697870 93836
COSMOS 2520             
1 42907U 17046A   19080.59168355  .00000111  00000-0  00000+0 0  9992
2 42907   0.0137 157.0668 0002171 355.4052 284.3593  1.00273138  5872
TNS 0-2                 
1 42914U 98067ND  19080.76643721  .00033726  00000-0  21274-3 0  9994
2 42914  51.6367  30.9025 0004289 155.2140 204.9067 15.76304709 90953
TDRS 13                 
1 42915U 17047A   19080.10119341 -.00000130  00000-0  00000+0 0  9992
2 42915   6.2525 330.6464 0015180  70.6071 161.9877  1.00271689  5856
QZS-3 (MICHIBIKI-3)     
1 42917U 17048A   19080.81502861 -.00000374  00000-0  00000+0 0  9996
2 42917   0.0465 198.5496 0001619 171.9055 228.9626  1.00268732  5859
COSMOS 2521             
1 42919U 17037D   19080.70478464  .00079211  49287-5  20925-3 0  9997
2 42919  97.8841 201.2758 0003024 201.1759 265.3329 15.94846356 88279
FORMOSAT-5              
1 42920U 17049A   19080.44041950 -.00000052  00000-0 -19449-5 0  9994
2 42920  98.3341 159.5762 0009158 284.4337  75.5843 14.50827605 83186
AMAZONAS 5              
1 42934U 17053A   19079.92443421 -.00000308  00000-0  00000+0 0  9994
2 42934   0.0454 341.8215 0004984  13.6902  94.4121  1.00271815  5604
COSMOS 2522 [GLONASS-M] 
1 42939U 17055A   19079.79220221  .00000025  00000-0  00000+0 0  9992
2 42939  64.5390 282.7925 0005074 252.9047  17.0264  2.13102054 11602
ASIASAT 9               
1 42942U 17057A   19079.88391471 -.00000386  00000-0  00000-0 0  9996
2 42942   0.0022 185.5112 0002516 161.4557 271.4258  1.00268878  5412
YAOGAN-30 A             
1 42945U 17058A   19080.43890948  .00000163  00000-0  19520-4 0  9999
2 42945  34.9998  74.5812 0003704   2.2712 357.8008 14.89607401 80316
YAOGAN-30 B             
1 42946U 17058B   19080.46201101  .00000170  00000-0  20195-4 0  9998
2 42946  34.9999  74.7641 0002238 202.5700 157.4906 14.89612347 80319
YAOGAN-30 C             
1 42947U 17058C   19080.41811127  .00000174  00000-0  20657-4 0  9996
2 42947  34.9997  75.3438 0006375  46.7360 313.3878 14.89610120 80290
INTELSAT 37E (IS-37E)   
1 42950U 17059A   19080.79441970 -.00000166  00000-0  00000+0 0  9994
2 42950   0.0014 183.6291 0002332 191.0851  72.2608  1.00271817  5537
BSAT-4A                 
1 42951U 17059B   19079.93938233 -.00000376  00000-0  00000-0 0  9996
2 42951   0.0540  24.5092 0005130   4.9046 236.7661  1.00271403  5280
VRSS-2                  
1 42954U 17060A   19080.78215930  .00000039  00000-0  13138-4 0  9993
2 42954  97.9680 158.7224 0019760  28.0236 332.2033 14.75987178 77960
IRIDIUM 133             
1 42955U 17061A   19080.45586327  .00000071  00000-0  18390-4 0  9991
2 42955  86.3973  50.4181 0002716  80.2355 279.9147 14.34217961 75707
IRIDIUM 100             
1 42956U 17061B   19080.44951282  .00000065  00000-0  16151-4 0  9993
2 42956  86.3970  50.4025 0002160  85.0697 275.0745 14.34219362 75727
IRIDIUM 122             
1 42957U 17061C   19080.41781197  .00000063  00000-0  15539-4 0  9994
2 42957  86.3971  50.4109 0002878  74.8282 285.3232 14.34217803 75705
IRIDIUM 129             
1 42958U 17061D   19080.44318374  .00000064  00000-0  15800-4 0  9993
2 42958  86.3971  50.4383 0002619  79.9715 280.1776 14.34217411 75723
IRIDIUM 119             
1 42959U 17061E   19080.41145980  .00000057  00000-0  13462-4 0  9996
2 42959  86.3971  50.4341 0002702  83.0830 277.0673 14.34215763 75735
IRIDIUM 107             
1 42960U 17061F   19080.43048990  .00000067  00000-0  16907-4 0  9991
2 42960  86.3973  50.4312 0002224  82.9396 277.2052 14.34219259 75750
IRIDIUM 132             
1 42961U 17061G   19080.36705871  .00000067  00000-0  16816-4 0  9991
2 42961  86.3972  50.4512 0002147  76.2776 283.8659 14.34219418 75735
IRIDIUM 136             
1 42962U 17061H   19080.39877965  .00000065  00000-0  16067-4 0  9995
2 42962  86.3973  50.4369 0002670  86.0261 274.1240 14.34219141 75750
IRIDIUM 139             
1 42963U 17061J   19080.40511863  .00000057  00000-0  13159-4 0  9990
2 42963  86.3973  50.4533 0002337  81.2829 278.8631 14.34215901 75767
IRIDIUM 125             
1 42964U 17061K   19080.32265931  .00000064  00000-0  15734-4 0  9993
2 42964  86.3975  50.5013 0002230  82.5068 277.6381 14.34219628 75764
QZS-4 (MICHIBIKI-4)     
1 42965U 17062A   19079.87162896 -.00000330  00000-0  00000-0 0  9992
2 42965  40.7241  17.6259 0749616 269.9793 342.1827  1.00286716  5298
SES-11 (ECHOSTAR 105)   
1 42967U 17063A   19079.62852372 -.00000114  00000-0  00000-0 0  9993
2 42967   0.0126 152.5038 0002838 202.1829 304.4677  1.00271544  5288
SENTINEL-5P             
1 42969U 17064A   19080.75455044 -.00000031  00000-0  60718-5 0  9992
2 42969  98.7288  21.4169 0001043  84.0994 276.0301 14.19554205 74386
KESTREL EYE IIM (KE2M)  
1 42982U 98067NE  19080.35575493  .00007597  00000-0  93772-4 0  9994
2 42982  51.6377  62.9206 0004228 149.8953 210.2285 15.61264682 79957
KOREASAT 5A             
1 42984U 17067A   19079.93938233 -.00000384  00000-0  00000-0 0  9990
2 42984   0.0098 205.8082 0000917 157.9579 265.7031  1.00270186  5016
COSMOS 2523             
1 42986U 17037E   19080.69249153  .00000344  00000-0  43121-4 0  9990
2 42986  97.8158 147.2804 0078911 354.1794   5.8502 14.86571793 75401
SKYSAT-C11              
1 42987U 17068A   19080.84328012  .00000593  00000-0  29342-4 0  9999
2 42987  97.4209 195.6528 0009891 159.8886 200.2742 15.21610717 76888
SKYSAT-C10              
1 42988U 17068B   19080.13275728  .00000715  00000-0  34702-4 0  9999
2 42988  97.4185 194.8457 0004385 178.7847 303.7571 15.21632163 76770
SKYSAT-C9               
1 42989U 17068C   19080.30089351  .00000691  00000-0  33686-4 0  9997
2 42989  97.4190 195.4511 0001659  71.2800 311.0064 15.21605126 76826
